CCSDS_OMM_VERS = 2.0
CREATION_DATE  = 
ORIGINATOR     = 

OBJECT_NAME    = AQUA
OBJECT_ID      = 2002-022A
CENTER_NAME    = EARTH
REF_FRAME      = TEME
TIME_SYSTEM    = UTC
MEAN_ELEMENT_THEORY = SGP/SGP4

EPOCH          = 2026-04-01T22:47:10.718304
MEAN_MOTION    = 14.62030724
ECCENTRICITY   = .0001295
INCLINATION    = 98.4214
RA_OF_ASC_NODE = 59.7450
ARG_OF_PERICENTER = 116.5393
MEAN_ANOMALY   = 280.2308

EPHEMERIS_TYPE = 0
CLASSIFICATION_TYPE = U
NORAD_CAT_ID   = 27424
ELEMENT_SET_NO = 999
REV_AT_EPOCH   = 27213
BSTAR          = .24730965E-3
MEAN_MOTION_DOT = .1191E-4
MEAN_MOTION_DDOT = 0

CCSDS_OMM_VERS = 2.0
CREATION_DATE  = 
ORIGINATOR     = 

OBJECT_NAME    = CZ-4B R/B
OBJECT_ID      = 2002-024C
CENTER_NAME    = EARTH
REF_FRAME      = TEME
TIME_SYSTEM    = UTC
MEAN_ELEMENT_THEORY = SGP/SGP4

EPOCH          = 2026-04-01T22:35:27.617568
MEAN_MOTION    = 14.14551768
ECCENTRICITY   = .0049348
INCLINATION    = 98.8787
RA_OF_ASC_NODE = 145.2256
ARG_OF_PERICENTER = 317.8680
MEAN_ANOMALY   = 214.0871

EPHEMERIS_TYPE = 0
CLASSIFICATION_TYPE = U
NORAD_CAT_ID   = 27432
ELEMENT_SET_NO = 999
REV_AT_EPOCH   = 23252
BSTAR          = .52429414E-4
MEAN_MOTION_DOT = .57E-6
MEAN_MOTION_DDOT = 0

CCSDS_OMM_VERS = 2.0
CREATION_DATE  = 
ORIGINATOR     = 

OBJECT_NAME    = MIDORI II (ADEOS-II)
OBJECT_ID      = 2002-056A
CENTER_NAME    = EARTH
REF_FRAME      = TEME
TIME_SYSTEM    = UTC
MEAN_ELEMENT_THEORY = SGP/SGP4

EPOCH          = 2026-04-01T21:43:23.333088
MEAN_MOTION    = 14.29302970
ECCENTRICITY   = .00005266
INCLINATION    = 98.7809
RA_OF_ASC_NODE = 50.5490
ARG_OF_PERICENTER = 20.5397
MEAN_ANOMALY   = 339.5806

EPHEMERIS_TYPE = 0
CLASSIFICATION_TYPE = U
NORAD_CAT_ID   = 27597
ELEMENT_SET_NO = 999
REV_AT_EPOCH   = 21361
BSTAR          = .16500239E-3
MEAN_MOTION_DOT = .375E-5
MEAN_MOTION_DDOT = 0

CCSDS_OMM_VERS = 2.0
CREATION_DATE  = 
ORIGINATOR     = 

OBJECT_NAME    = H-2A R/B
OBJECT_ID      = 2002-056E
CENTER_NAME    = EARTH
REF_FRAME      = TEME
TIME_SYSTEM    = UTC
MEAN_ELEMENT_THEORY = SGP/SGP4

EPOCH          = 2026-04-01T14:51:27.170208
MEAN_MOTION    = 14.33776523
ECCENTRICITY   = .00714265
INCLINATION    = 98.3243
RA_OF_ASC_NODE = 51.1173
ARG_OF_PERICENTER = 93.1914
MEAN_ANOMALY   = 80.0952

EPHEMERIS_TYPE = 0
CLASSIFICATION_TYPE = U
NORAD_CAT_ID   = 27601
ELEMENT_SET_NO = 999
REV_AT_EPOCH   = 21739
BSTAR          = .14382769E-3
MEAN_MOTION_DOT = .37E-5
MEAN_MOTION_DDOT = 0

CCSDS_OMM_VERS = 2.0
CREATION_DATE  = 
ORIGINATOR     = 

OBJECT_NAME    = CZ-4B R/B
OBJECT_ID      = 2003-049C
CENTER_NAME    = EARTH
REF_FRAME      = TEME
TIME_SYSTEM    = UTC
MEAN_ELEMENT_THEORY = SGP/SGP4

EPOCH          = 2026-04-01T23:17:54.054528
MEAN_MOTION    = 14.55041279
ECCENTRICITY   = .00485233
INCLINATION    = 98.6895
RA_OF_ASC_NODE = 87.7926
ARG_OF_PERICENTER = 159.3872
MEAN_ANOMALY   = 200.9296

EPHEMERIS_TYPE = 0
CLASSIFICATION_TYPE = U
NORAD_CAT_ID   = 28059
ELEMENT_SET_NO = 999
REV_AT_EPOCH   = 18998
BSTAR          = .10970449E-3
MEAN_MOTION_DOT = .429E-5
MEAN_MOTION_DDOT = 0

CCSDS_OMM_VERS = 2.0
CREATION_DATE  = 
ORIGINATOR     = 

OBJECT_NAME    = CZ-2C R/B
OBJECT_ID      = 2004-012C
CENTER_NAME    = EARTH
REF_FRAME      = TEME
TIME_SYSTEM    = UTC
MEAN_ELEMENT_THEORY = SGP/SGP4

EPOCH          = 2026-04-01T22:24:14.602176
MEAN_MOTION    = 15.67439321
ECCENTRICITY   = .00136282
INCLINATION    = 97.7177
RA_OF_ASC_NODE = 159.4725
ARG_OF_PERICENTER = 218.3773
MEAN_ANOMALY   = 141.6518

EPHEMERIS_TYPE = 0
CLASSIFICATION_TYPE = U
NORAD_CAT_ID   = 28222
ELEMENT_SET_NO = 999
REV_AT_EPOCH   = 20791
BSTAR          = .58746757E-3
MEAN_MOTION_DOT = .64061E-3
MEAN_MOTION_DDOT = 0

CCSDS_OMM_VERS = 2.0
CREATION_DATE  = 
ORIGINATOR     = 

OBJECT_NAME    = SL-16 R/B
OBJECT_ID      = 2004-021B
CENTER_NAME    = EARTH
REF_FRAME      = TEME
TIME_SYSTEM    = UTC
MEAN_ELEMENT_THEORY = SGP/SGP4

EPOCH          = 2026-04-01T12:13:27.622272
MEAN_MOTION    = 14.14597396
ECCENTRICITY   = .00051994
INCLINATION    = 71.0011
RA_OF_ASC_NODE = 184.6051
ARG_OF_PERICENTER = 341.4090
MEAN_ANOMALY   = 18.6841

EPHEMERIS_TYPE = 0
CLASSIFICATION_TYPE = U
NORAD_CAT_ID   = 28353
ELEMENT_SET_NO = 999
REV_AT_EPOCH   = 12606
BSTAR          = .19962606E-3
MEAN_MOTION_DOT = .336E-5
MEAN_MOTION_DDOT = 0

CCSDS_OMM_VERS = 2.0
CREATION_DATE  = 
ORIGINATOR     = 

OBJECT_NAME    = CZ-4B R/B
OBJECT_ID      = 2004-035C
CENTER_NAME    = EARTH
REF_FRAME      = TEME
TIME_SYSTEM    = UTC
MEAN_ELEMENT_THEORY = SGP/SGP4

EPOCH          = 2026-04-01T19:27:30.684384
MEAN_MOTION    = 15.29472230
ECCENTRICITY   = .00301658
INCLINATION    = 97.3456
RA_OF_ASC_NODE = 125.7777
ARG_OF_PERICENTER = 244.9279
MEAN_ANOMALY   = 114.8830

EPHEMERIS_TYPE = 0
CLASSIFICATION_TYPE = U
NORAD_CAT_ID   = 28415
ELEMENT_SET_NO = 999
REV_AT_EPOCH   = 18344
BSTAR          = .30312442E-3
MEAN_MOTION_DOT = .8704E-4
MEAN_MOTION_DDOT = 0

CCSDS_OMM_VERS = 2.0
CREATION_DATE  = 
ORIGINATOR     = 

OBJECT_NAME    = CZ-2C R/B
OBJECT_ID      = 2004-046B
CENTER_NAME    = EARTH
REF_FRAME      = TEME
TIME_SYSTEM    = UTC
MEAN_ELEMENT_THEORY = SGP/SGP4

EPOCH          = 2026-04-01T11:37:27.014880
MEAN_MOTION    = 14.27000615
ECCENTRICITY   = .01406315
INCLINATION    = 98.1978
RA_OF_ASC_NODE = 5.0480
ARG_OF_PERICENTER = 87.4871
MEAN_ANOMALY   = 274.2402

EPHEMERIS_TYPE = 0
CLASSIFICATION_TYPE = U
NORAD_CAT_ID   = 28480
ELEMENT_SET_NO = 999
REV_AT_EPOCH   = 11175
BSTAR          = .88419069E-4
MEAN_MOTION_DOT = .199E-5
MEAN_MOTION_DDOT = 0

CCSDS_OMM_VERS = 2.0
CREATION_DATE  = 
ORIGINATOR     = 

OBJECT_NAME    = ARIANE 5 R/B
OBJECT_ID      = 2004-049H
CENTER_NAME    = EARTH
REF_FRAME      = TEME
TIME_SYSTEM    = UTC
MEAN_ELEMENT_THEORY = SGP/SGP4

EPOCH          = 2026-04-01T22:36:11.593440
MEAN_MOTION    = 14.85309689
ECCENTRICITY   = .00828369
INCLINATION    = 98.2660
RA_OF_ASC_NODE = 261.2750
ARG_OF_PERICENTER = 275.8137
MEAN_ANOMALY   = 83.3637

EPHEMERIS_TYPE = 0
CLASSIFICATION_TYPE = U
NORAD_CAT_ID   = 28499
ELEMENT_SET_NO = 999
REV_AT_EPOCH   = 14924
BSTAR          = .12058527E-3
MEAN_MOTION_DOT = .1035E-4
MEAN_MOTION_DDOT = 0

CCSDS_OMM_VERS = 2.0
CREATION_DATE  = 
ORIGINATOR     = 

OBJECT_NAME    = CZ-2D R/B
OBJECT_ID      = 2005-024B
CENTER_NAME    = EARTH
REF_FRAME      = TEME
TIME_SYSTEM    = UTC
MEAN_ELEMENT_THEORY = SGP/SGP4

EPOCH          = 2026-04-01T23:25:25.943808
MEAN_MOTION    = 15.62345693
ECCENTRICITY   = .00018616
INCLINATION    = 97.3568
RA_OF_ASC_NODE = 108.0110
ARG_OF_PERICENTER = 301.5812
MEAN_ANOMALY   = 58.5264

EPHEMERIS_TYPE = 0
CLASSIFICATION_TYPE = U
NORAD_CAT_ID   = 28738
ELEMENT_SET_NO = 999
REV_AT_EPOCH   = 14341
BSTAR          = .54037568E-3
MEAN_MOTION_DOT = .47841E-3
MEAN_MOTION_DDOT = 0

CCSDS_OMM_VERS = 2.0
CREATION_DATE  = 
ORIGINATOR     = 

OBJECT_NAME    = ALOS (DAICHI)
OBJECT_ID      = 2006-002A
CENTER_NAME    = EARTH
REF_FRAME      = TEME
TIME_SYSTEM    = UTC
MEAN_ELEMENT_THEORY = SGP/SGP4

EPOCH          = 2026-04-01T13:55:49.321344
MEAN_MOTION    = 14.69880872
ECCENTRICITY   = .00009764
INCLINATION    = 98.1255
RA_OF_ASC_NODE = 47.4277
ARG_OF_PERICENTER = 112.1277
MEAN_ANOMALY   = 248.0033

EPHEMERIS_TYPE = 0
CLASSIFICATION_TYPE = U
NORAD_CAT_ID   = 28931
ELEMENT_SET_NO = 999
REV_AT_EPOCH   = 7684
BSTAR          = .28529129E-3
MEAN_MOTION_DOT = .1657E-4
MEAN_MOTION_DDOT = 0

