AQUA                    
1 27424U 02022A   26091.94942961  .00001191  00000+0  24731-3 0  9998
2 27424  98.4214  59.7450 0001295 116.5393 280.2308 14.62030724272131
CZ-4B R/B               
1 27432U 02024C   26091.94129187  .00000057  00000+0  52429-4 0  9992
2 27432  98.8787 145.2256 0049348 317.8680 214.0871 14.14551768232522
MIDORI II (ADEOS-II)    
1 27597U 02056A   26091.90513117  .00000375  00000+0  16500-3 0  9997
2 27597  98.7809  50.5490 0000526  20.5397 339.5806 14.29302970213619
H-2A R/B                
1 27601U 02056E   26091.61906447  .00000370  00000+0  14383-3 0  9995
2 27601  98.3243  51.1173 0071426  93.1914  80.0952 14.33776523217399
CZ-4B R/B               
1 28059U 03049C   26091.97076452  .00000429  00000+0  10970-3 0  9992
2 28059  98.6895  87.7926 0048523 159.3872 200.9296 14.55041279189988
CZ-2C R/B               
1 28222U 04012C   26091.93350234  .00064061  00000+0  58747-3 0  9990
2 28222  97.7177 159.4725 0013628 218.3773 141.6518 15.67439321207916
SL-16 R/B               
1 28353U 04021B   26091.50934748  .00000336  00000+0  19963-3 0  9998
2 28353  71.0011 184.6051 0005199 341.4090  18.6841 14.14597396126065
CZ-4B R/B               
1 28415U 04035C   26091.81077181  .00008704  00000+0  30312-3 0  9993
2 28415  97.3456 125.7777 0030165 244.9279 114.8830 15.29472230183444
CZ-2C R/B               
1 28480U 04046B   26091.48434045  .00000199  00000+0  88419-4 0  9998
2 28480  98.1978   5.0480 0140631  87.4871 274.2402 14.27000615111755
ARIANE 5 R/B            
1 28499U 04049H   26091.94180085  .00001035  00000+0  12059-3 0  9990
2 28499  98.2660 261.2750 0082836 275.8137  83.3637 14.85309689149241
CZ-2D R/B               
1 28738U 05024B   26091.97599472  .00047841  00000+0  54038-3 0  9995
2 28738  97.3568 108.0110 0001861 301.5812  58.5264 15.62345693143412
ALOS (DAICHI)           
1 28931U 06002A   26091.58043196  .00001657  00000+0  28529-3 0  9992
2 28931  98.1255  47.4277 0000976 112.1277 248.0033 14.69880872 76847
